{
  "norad_id": 59046,
  "name": "STARLINK-31205",
  "history": [
    {
      "epoch": "2026-03-28T19:51:59.877504Z",
      "apogee_km": 484.0012591052764,
      "perigee_km": 482.1753498272519,
      "latitude_deg": -5.876888632464236e-05,
      "longitude_deg": 151.3706182249467,
      "height_km": 482.59692873385467,
      "semi_major_axis_km": 6861.225304466264,
      "eccentricity": 0.00013306,
      "inclination_deg": 43.0035,
      "raan_deg": 275.6128,
      "arg_perigee_deg": 287.0974,
      "mean_anomaly_deg": 72.9731,
      "mean_motion_rev_day": 15.27566906
    }
  ]
}