{"fetched_at":"2026-03-30T06:02:59Z","count":15439,"tles":[{"name":"STARLINK-31205","line1":"1 59046U 24038Z   26087.82777636 -.00001672  00000+0 -51264-4 0  9999","line2":"2 59046  43.0035 275.6128 0001330 287.0974  72.9731 15.27566906117720","category":"Starlink"}]}